{
  "type": "FeatureCollection",
  "features": [
    {
      "type": "Feature",
      "properties": {
        "norad_id": 30182,
        "name": "FENGYUN 1C DEB",
        "group": "fengyun-1c-debris",
        "lat": -6.946384373702948,
        "lon": -143.4348314983221,
        "alt_km": 962.4308889612475,
        "timestamp": "2025-12-12T16:50:33.419191+00:00",
        "meta_object_name": "FENGYUN 1C DEB",
        "meta_object_id": "1999-025UP",
        "meta_epoch": "2025-12-12T02:20:12.498432",
        "meta_mean_motion": 13.96457506,
        "meta_eccentricity": 0.00751326,
        "meta_inclination": 99.0661,
        "meta_ra_of_asc_node": 37.0845,
        "meta_arg_of_pericenter": 24.4762,
        "meta_mean_anomaly": 5.349,
        "meta_ephemeris_type": 0,
        "meta_classification_type": "U",
        "meta_norad_cat_id": 30182,
        "meta_element_set_no": 999,
        "meta_rev_at_epoch": 96299,
        "meta_bstar": 0.00023439891,
        "meta_mean_motion_dot": 2.88e-06,
        "meta_mean_motion_ddot": 0,
        "tle_line1": "1 30182U 99025UP  25346.09736688  .00000288  00000+0  23440-3 0  9999",
        "tle_line2": "2 30182  99.0661  37.0845 0075132  24.4762   5.3490 13.96457506962999"
      },
      "geometry": {
        "type": "Point",
        "coordinates": [
          -143.4348314983221,
          -6.946384373702948
        ]
      }
    },
    {
      "type": "Feature",
      "properties": {
        "norad_id": 30183,
        "name": "FENGYUN 1C DEB",
        "group": "fengyun-1c-debris",
        "lat": -12.60845044830026,
        "lon": 30.92395590525869,
        "alt_km": 855.9336564968307,
        "timestamp": "2025-12-12T16:50:33.419202+00:00",
        "meta_object_name": "FENGYUN 1C DEB",
        "meta_object_id": "1999-025UQ",
        "meta_epoch": "2025-12-12T01:54:05.654304",
        "meta_mean_motion": 14.12659935,
        "meta_eccentricity": 0.00259203,
        "meta_inclination": 98.7886,
        "meta_ra_of_asc_node": 28.3302,
        "meta_arg_of_pericenter": 255.1007,
        "meta_mean_anomaly": 167.7319,
        "meta_ephemeris_type": 0,
        "meta_classification_type": "U",
        "meta_norad_cat_id": 30183,
        "meta_element_set_no": 999,
        "meta_rev_at_epoch": 97134,
        "meta_bstar": 0.00077569865,
        "meta_mean_motion_dot": 1.398e-05,
        "meta_mean_motion_ddot": 0,
        "tle_line1": "1 30183U 99025UQ  25346.07923211  .00001398  00000+0  77570-3 0  9994",
        "tle_line2": "2 30183  98.7886  28.3302 0025920 255.1007 167.7319 14.12659935971342"
      },
      "geometry": {
        "type": "Point",
        "coordinates": [
          30.92395590525869,
          -12.60845044830026
        ]
      }
    },
    {
      "type": "Feature",
      "properties": {
        "norad_id": 30191,
        "name": "FENGYUN 1C DEB",
        "group": "fengyun-1c-debris",
        "lat": -77.9233669457883,
        "lon": -168.3417082708864,
        "alt_km": 574.7641297278478,
        "timestamp": "2025-12-12T16:50:33.419212+00:00",
        "meta_object_name": "FENGYUN 1C DEB",
        "meta_object_id": "1999-025UY",
        "meta_epoch": "2025-12-12T04:32:00.731904",
        "meta_mean_motion": 14.77995038,
        "meta_eccentricity": 0.00972415,
        "meta_inclination": 98.7756,
        "meta_ra_of_asc_node": 57.32,
        "meta_arg_of_pericenter": 265.2893,
        "meta_mean_anomaly": 149.0996,
        "meta_ephemeris_type": 0,
        "meta_classification_type": "U",
        "meta_norad_cat_id": 30191,
        "meta_element_set_no": 999,
        "meta_rev_at_epoch": 267,
        "meta_bstar": 0.0017081924,
        "meta_mean_motion_dot": 0.00013291,
        "meta_mean_motion_ddot": 0,
        "tle_line1": "1 30191U 99025UY  25346.18889736  .00013291  00000+0  17082-2 0  9994",
        "tle_line2": "2 30191  98.7756  57.3200 0097241 265.2893 149.0996 14.77995038  2679"
      },
      "geometry": {
        "type": "Point",
        "coordinates": [
          -168.3417082708864,
          -77.9233669457883
        ]
      }
    },
    {
      "type": "Feature",
      "properties": {
        "norad_id": 30193,
        "name": "FENGYUN 1C DEB",
        "group": "fengyun-1c-debris",
        "lat": -19.56242804052569,
        "lon": -101.94917046455357,
        "alt_km": 801.2746693507643,
        "timestamp": "2025-12-12T16:50:33.419223+00:00",
        "meta_object_name": "FENGYUN 1C DEB",
        "meta_object_id": "1999-025VA",
        "meta_epoch": "2025-12-12T07:31:36.492384",
        "meta_mean_motion": 14.49117635,
        "meta_eccentricity": 0.01071982,
        "meta_inclination": 98.7557,
        "meta_ra_of_asc_node": 254.5088,
        "meta_arg_of_pericenter": 134.3561,
        "meta_mean_anomaly": 342.7327,
        "meta_ephemeris_type": 0,
        "meta_classification_type": "U",
        "meta_norad_cat_id": 30193,
        "meta_element_set_no": 999,
        "meta_rev_at_epoch": 99160,
        "meta_bstar": 0.0011180267,
        "meta_mean_motion_dot": 4.523e-05,
        "meta_mean_motion_ddot": 0,
        "tle_line1": "1 30193U 99025VA  25346.31361681  .00004523  00000+0  11180-2 0  9996",
        "tle_line2": "2 30193  98.7557 254.5088 0107198 134.3561 342.7327 14.49117635991604"
      },
      "geometry": {
        "type": "Point",
        "coordinates": [
          -101.94917046455357,
          -19.56242804052569
        ]
      }
    },
    {
      "type": "Feature",
      "properties": {
        "norad_id": 30196,
        "name": "FENGYUN 1C DEB",
        "group": "fengyun-1c-debris",
        "lat": 46.80976701928853,
        "lon": -91.52469595417293,
        "alt_km": 778.7840766507024,
        "timestamp": "2025-12-12T16:50:33.419233+00:00",
        "meta_object_name": "FENGYUN 1C DEB",
        "meta_object_id": "1999-025VD",
        "meta_epoch": "2025-12-12T06:14:09.070080",
        "meta_mean_motion": 14.25847607,
        "meta_eccentricity": 0.00869525,
        "meta_inclination": 98.6402,
        "meta_ra_of_asc_node": 78.7182,
        "meta_arg_of_pericenter": 64.5411,
        "meta_mean_anomaly": 319.6838,
        "meta_ephemeris_type": 0,
        "meta_classification_type": "U",
        "meta_norad_cat_id": 30196,
        "meta_element_set_no": 999,
        "meta_rev_at_epoch": 98358,
        "meta_bstar": 8.9579204e-05,
        "meta_mean_motion_dot": 1.79e-06,
        "meta_mean_motion_ddot": 0,
        "tle_line1": "1 30196U 99025VD  25346.25982720  .00000179  00000+0  89579-4 0  9997",
        "tle_line2": "2 30196  98.6402  78.7182 0086952  64.5411 319.6838 14.25847607983589"
      },
      "geometry": {
        "type": "Point",
        "coordinates": [
          -91.52469595417293,
          46.80976701928853
        ]
      }
    },
    {
      "type": "Feature",
      "properties": {
        "norad_id": 30197,
        "name": "FENGYUN 1C DEB",
        "group": "fengyun-1c-debris",
        "lat": -24.648597293131377,
        "lon": -83.80112825702429,
        "alt_km": 793.7156201799198,
        "timestamp": "2025-12-12T16:50:33.419244+00:00",
        "meta_object_name": "FENGYUN 1C DEB",
        "meta_object_id": "1999-025VE",
        "meta_epoch": "2025-12-12T07:29:13.642080",
        "meta_mean_motion": 14.37190799,
        "meta_eccentricity": 0.0056901,
        "meta_inclination": 98.9378,
        "meta_ra_of_asc_node": 271.653,
        "meta_arg_of_pericenter": 215.8732,
        "meta_mean_anomaly": 263.0031,
        "meta_ephemeris_type": 0,
        "meta_classification_type": "U",
        "meta_norad_cat_id": 30197,
        "meta_element_set_no": 999,
        "meta_rev_at_epoch": 98480,
        "meta_bstar": 0.0012701933,
        "meta_mean_motion_dot": 3.805e-05,
        "meta_mean_motion_ddot": 0,
        "tle_line1": "1 30197U 99025VE  25346.31196345  .00003805  00000+0  12702-2 0  9996",
        "tle_line2": "2 30197  98.9378 271.6530 0056901 215.8732 263.0031 14.37190799984803"
      },
      "geometry": {
        "type": "Point",
        "coordinates": [
          -83.80112825702429,
          -24.648597293131377
        ]
      }
    },
    {
      "type": "Feature",
      "properties": {
        "norad_id": 30198,
        "name": "FENGYUN 1C DEB",
        "group": "fengyun-1c-debris",
        "lat": -71.18806903840998,
        "lon": 143.60635490286282,
        "alt_km": 728.9233990836183,
        "timestamp": "2025-12-12T16:50:33.419253+00:00",
        "meta_object_name": "FENGYUN 1C DEB",
        "meta_object_id": "1999-025VF",
        "meta_epoch": "2025-12-12T07:20:34.085184",
        "meta_mean_motion": 14.50344427,
        "meta_eccentricity": 0.01069166,
        "meta_inclination": 98.4472,
        "meta_ra_of_asc_node": 117.3457,
        "meta_arg_of_pericenter": 199.6444,
        "meta_mean_anomaly": 180.5364,
        "meta_ephemeris_type": 0,
        "meta_classification_type": "U",
        "meta_norad_cat_id": 30198,
        "meta_element_set_no": 999,
        "meta_rev_at_epoch": 98501,
        "meta_bstar": 0.0030590285,
        "meta_mean_motion_dot": 0.00012815,
        "meta_mean_motion_ddot": 0,
        "tle_line1": "1 30198U 99025VF  25346.30595006  .00012815  00000+0  30590-2 0  9999",
        "tle_line2": "2 30198  98.4472 117.3457 0106916 199.6444 180.5364 14.50344427985019"
      },
      "geometry": {
        "type": "Point",
        "coordinates": [
          143.60635490286282,
          -71.18806903840998
        ]
      }
    }
  ]
}